{
  "type": "FeatureCollection",
  "features": [
    {
      "type": "Feature",
      "properties": {
        "norad_id": 30103,
        "name": "FENGYUN 1C DEB",
        "group": "fengyun-1c-debris",
        "lat": 73.73953254980813,
        "lon": -162.22134941908678,
        "alt_km": 759.9378632528897,
        "timestamp": "2025-12-27T13:34:49.569167+00:00",
        "meta_object_name": "FENGYUN 1C DEB",
        "meta_object_id": "1999-025RG",
        "meta_epoch": "2025-12-27T04:58:45.156576",
        "meta_mean_motion": 14.24889254,
        "meta_eccentricity": 0.0064291,
        "meta_inclination": 99.2465,
        "meta_ra_of_asc_node": 343.4485,
        "meta_arg_of_pericenter": 79.0999,
        "meta_mean_anomaly": 346.646,
        "meta_ephemeris_type": 0,
        "meta_classification_type": "U",
        "meta_norad_cat_id": 30103,
        "meta_element_set_no": 999,
        "meta_rev_at_epoch": 98125,
        "meta_bstar": 0.00052649895,
        "meta_mean_motion_dot": 1.208e-05,
        "meta_mean_motion_ddot": 0,
        "tle_line1": "1 30103U 99025RG  25361.20746709  .00001208  00000+0  52650-3 0  9995",
        "tle_line2": "2 30103  99.2465 343.4485 0064291  79.0999 346.6460 14.24889254981251"
      },
      "geometry": {
        "type": "Point",
        "coordinates": [
          -162.22134941908678,
          73.73953254980813
        ]
      }
    },
    {
      "type": "Feature",
      "properties": {
        "norad_id": 30104,
        "name": "FENGYUN 1C DEB",
        "group": "fengyun-1c-debris",
        "lat": -8.54863995593058,
        "lon": -160.78287737863724,
        "alt_km": 794.5345842850811,
        "timestamp": "2025-12-27T13:34:49.569177+00:00",
        "meta_object_name": "FENGYUN 1C DEB",
        "meta_object_id": "1999-025RH",
        "meta_epoch": "2025-12-27T00:50:37.270176",
        "meta_mean_motion": 14.25712664,
        "meta_eccentricity": 0.00741744,
        "meta_inclination": 98.3594,
        "meta_ra_of_asc_node": 197.4445,
        "meta_arg_of_pericenter": 66.4966,
        "meta_mean_anomaly": 83.5095,
        "meta_ephemeris_type": 0,
        "meta_classification_type": "U",
        "meta_norad_cat_id": 30104,
        "meta_element_set_no": 999,
        "meta_rev_at_epoch": 98096,
        "meta_bstar": 0.0007350807,
        "meta_mean_motion_dot": 1.755e-05,
        "meta_mean_motion_ddot": 0,
        "tle_line1": "1 30104U 99025RH  25361.03515359  .00001755  00000+0  73508-3 0  9994",
        "tle_line2": "2 30104  98.3594 197.4445 0074174  66.4966  83.5095 14.25712664980962"
      },
      "geometry": {
        "type": "Point",
        "coordinates": [
          -160.78287737863724,
          -8.54863995593058
        ]
      }
    },
    {
      "type": "Feature",
      "properties": {
        "norad_id": 30105,
        "name": "FENGYUN 1C DEB",
        "group": "fengyun-1c-debris",
        "lat": -51.79537636779748,
        "lon": 156.1473932697289,
        "alt_km": 960.7200867323791,
        "timestamp": "2025-12-27T13:34:49.569187+00:00",
        "meta_object_name": "FENGYUN 1C DEB",
        "meta_object_id": "1999-025RJ",
        "meta_epoch": "2025-12-26T22:58:34.525920",
        "meta_mean_motion": 14.21429055,
        "meta_eccentricity": 0.0199395,
        "meta_inclination": 98.5948,
        "meta_ra_of_asc_node": 346.6334,
        "meta_arg_of_pericenter": 32.9244,
        "meta_mean_anomaly": 328.4171,
        "meta_ephemeris_type": 0,
        "meta_classification_type": "U",
        "meta_norad_cat_id": 30105,
        "meta_element_set_no": 999,
        "meta_rev_at_epoch": 97964,
        "meta_bstar": 0.0005176,
        "meta_mean_motion_dot": 1.339e-05,
        "meta_mean_motion_ddot": 0,
        "tle_line1": "1 30105U 99025RJ  25360.95734405  .00001339  00000+0  51760-3 0  9994",
        "tle_line2": "2 30105  98.5948 346.6334 0199395  32.9244 328.4171 14.21429055979647"
      },
      "geometry": {
        "type": "Point",
        "coordinates": [
          156.1473932697289,
          -51.79537636779748
        ]
      }
    },
    {
      "type": "Feature",
      "properties": {
        "norad_id": 30106,
        "name": "FENGYUN 1C DEB",
        "group": "fengyun-1c-debris",
        "lat": 40.2774338617114,
        "lon": -96.95681124748536,
        "alt_km": 616.2261693078099,
        "timestamp": "2025-12-27T13:34:49.569197+00:00",
        "meta_object_name": "FENGYUN 1C DEB",
        "meta_object_id": "1999-025RK",
        "meta_epoch": "2025-12-27T07:30:25.819776",
        "meta_mean_motion": 14.86188155,
        "meta_eccentricity": 0.00478523,
        "meta_inclination": 98.9233,
        "meta_ra_of_asc_node": 270.4106,
        "meta_arg_of_pericenter": 148.6887,
        "meta_mean_anomaly": 339.6916,
        "meta_ephemeris_type": 0,
        "meta_classification_type": "U",
        "meta_norad_cat_id": 30106,
        "meta_element_set_no": 999,
        "meta_rev_at_epoch": 98761,
        "meta_bstar": 0.0045485165,
        "meta_mean_motion_dot": 0.00040925,
        "meta_mean_motion_ddot": 0,
        "tle_line1": "1 30106U 99025RK  25361.31279884  .00040925  00000+0  45485-2 0  9991",
        "tle_line2": "2 30106  98.9233 270.4106 0047852 148.6887 339.6916 14.86188155987619"
      },
      "geometry": {
        "type": "Point",
        "coordinates": [
          -96.95681124748536,
          40.2774338617114
        ]
      }
    },
    {
      "type": "Feature",
      "properties": {
        "norad_id": 30107,
        "name": "FENGYUN 1C DEB",
        "group": "fengyun-1c-debris",
        "lat": 50.55437969910297,
        "lon": -110.74356389615127,
        "alt_km": 861.5790496204072,
        "timestamp": "2025-12-27T13:34:49.569208+00:00",
        "meta_object_name": "FENGYUN 1C DEB",
        "meta_object_id": "1999-025RL",
        "meta_epoch": "2025-12-27T02:46:34.164480",
        "meta_mean_motion": 14.14431223,
        "meta_eccentricity": 0.01265936,
        "meta_inclination": 98.8449,
        "meta_ra_of_asc_node": 57.9012,
        "meta_arg_of_pericenter": 234.4486,
        "meta_mean_anomaly": 124.4832,
        "meta_ephemeris_type": 0,
        "meta_classification_type": "U",
        "meta_norad_cat_id": 30107,
        "meta_element_set_no": 999,
        "meta_rev_at_epoch": 97764,
        "meta_bstar": 0.00016052867,
        "meta_mean_motion_dot": 2.87e-06,
        "meta_mean_motion_ddot": 0,
        "tle_line1": "1 30107U 99025RL  25361.11567320  .00000287  00000+0  16053-3 0  9992",
        "tle_line2": "2 30107  98.8449  57.9012 0126593 234.4486 124.4832 14.14431223977648"
      },
      "geometry": {
        "type": "Point",
        "coordinates": [
          -110.74356389615127,
          50.55437969910297
        ]
      }
    },
    {
      "type": "Feature",
      "properties": {
        "norad_id": 30108,
        "name": "FENGYUN 1C DEB",
        "group": "fengyun-1c-debris",
        "lat": 0.4491032828658571,
        "lon": 167.11426979528986,
        "alt_km": 970.949455541212,
        "timestamp": "2025-12-27T13:34:49.569218+00:00",
        "meta_object_name": "FENGYUN 1C DEB",
        "meta_object_id": "1999-025RM",
        "meta_epoch": "2025-12-26T21:44:35.307744",
        "meta_mean_motion": 14.17201731,
        "meta_eccentricity": 0.0196847,
        "meta_inclination": 98.6614,
        "meta_ra_of_asc_node": 346.4025,
        "meta_arg_of_pericenter": 341.502,
        "meta_mean_anomaly": 73.9012,
        "meta_ephemeris_type": 0,
        "meta_classification_type": "U",
        "meta_norad_cat_id": 30108,
        "meta_element_set_no": 999,
        "meta_rev_at_epoch": 97799,
        "meta_bstar": 0.00050725,
        "meta_mean_motion_dot": 1.192e-05,
        "meta_mean_motion_ddot": 0,
        "tle_line1": "1 30108U 99025RM  25360.90596421  .00001192  00000+0  50725-3 0  9993",
        "tle_line2": "2 30108  98.6614 346.4025 0196847 341.5020  73.9012 14.17201731977992"
      },
      "geometry": {
        "type": "Point",
        "coordinates": [
          167.11426979528986,
          0.4491032828658571
        ]
      }
    },
    {
      "type": "Feature",
      "properties": {
        "norad_id": 30109,
        "name": "FENGYUN 1C DEB",
        "group": "fengyun-1c-debris",
        "lat": -46.92546463138468,
        "lon": 3.671261921573898,
        "alt_km": 904.9445127623703,
        "timestamp": "2025-12-27T13:34:49.569228+00:00",
        "meta_object_name": "FENGYUN 1C DEB",
        "meta_object_id": "1999-025RN",
        "meta_epoch": "2025-12-27T05:24:11.297664",
        "meta_mean_motion": 14.17570542,
        "meta_eccentricity": 0.01678657,
        "meta_inclination": 98.5087,
        "meta_ra_of_asc_node": 354.1311,
        "meta_arg_of_pericenter": 190.3978,
        "meta_mean_anomaly": 182.6499,
        "meta_ephemeris_type": 0,
        "meta_classification_type": "U",
        "meta_norad_cat_id": 30109,
        "meta_element_set_no": 999,
        "meta_rev_at_epoch": 97757,
        "meta_bstar": 0.00032004001,
        "meta_mean_motion_dot": 7.05e-06,
        "meta_mean_motion_ddot": 0,
        "tle_line1": "1 30109U 99025RN  25361.22513076  .00000705  00000+0  32004-3 0  9994",
        "tle_line2": "2 30109  98.5087 354.1311 0167865 190.3978 182.6499 14.17570542977570"
      },
      "geometry": {
        "type": "Point",
        "coordinates": [
          3.671261921573898,
          -46.92546463138468
        ]
      }
    }
  ]
}